NORAD_CAT_ID,OBJECT_NAME,OBJECT_TYPE,EPOCH,MEAN_MOTION,ECCENTRICITY,INCLINATION,RA_OF_ASC_NODE,ARG_OF_PERICENTER,MEAN_ANOMALY,BSTAR,MEAN_MOTION_DOT,MEAN_MOTION_DDOT,TLE_LINE0,TLE_LINE1,TLE_LINE2,SEMIMAJOR_AXIS,PERIOD,APOGEE,PERIGEE,DECAYED
51715.0,STARLINK-3533,PAYLOAD,2023-08-02 10:57:42,15.08871408,0.0001277,53.2162,274.8943,81.7147,278.399,0.00072934,0.00011348,0.0,0 STARLINK-3533,1 51715U 22016B   23214.45674348  .00011348  00000-0  72934-3 0  9998,2 51715  53.2162 274.8943 0001277  81.7147 278.3990 15.08871408 81102,6917.784,95.436,540.533,538.766,0.0
51715.0,STARLINK-3533,PAYLOAD,2023-08-03 09:13:05,15.08854424,0.0001308,53.2163,270.7342,86.5347,273.5795,-2.5477e-05,-6.94e-06,0.0,0 STARLINK-3533,1 51715U 22016B   23215.38409559 -.00000694  00000-0 -25477-4 0  9996,2 51715  53.2163 270.7342 0001308  86.5347 273.5795 15.08854424 81245,6917.836,95.437,540.606,538.796,0.0
51715.0,STARLINK-3533,PAYLOAD,2023-08-04 02:42:20,15.08848926,0.0001428,53.2163,267.464,87.3936,272.7219,-0.00026149,-4.448e-05,0.0,0 STARLINK-3533,1 51715U 22016B   23216.11273532 -.00004448  00000-0 -26149-3 0  9995,2 51715  53.2163 267.4640 0001428  87.3936 272.7219 15.08848926 81359,6917.853,95.437,540.706,538.73,0.0
51715.0,STARLINK-3533,PAYLOAD,2023-08-04 09:03:53,15.08839925,0.0001221,53.2171,266.2696,92.473,267.6402,-0.00011884,-2.179e-05,0.0,0 STARLINK-3533,1 51715U 22016B   23216.37770675 -.00002179  00000-0 -11884-3 0  9992,2 51715  53.2171 266.2696 0001221  92.4730 267.6402 15.08839925 81396,6917.881,95.438,540.59,538.901,0.0
51715.0,STARLINK-3533,PAYLOAD,2023-08-05 10:30:02,15.08849904,0.0001189,53.2166,261.511,95.9768,264.136,0.00010383,1.365e-05,0.0,0 STARLINK-3533,1 51715U 22016B   23217.43753254  .00001365  00000-0  10383-3 0  9991,2 51715  53.2166 261.5110 0001189  95.9768 264.1360 15.08849904 81552,6917.85,95.437,540.538,538.893,0.0
51715.0,STARLINK-3533,PAYLOAD,2023-08-06 02:23:54,15.0884033,0.0001123,53.2164,258.5373,97.8466,262.2653,0.00014504,2.021e-05,0.0,0 STARLINK-3533,1 51715U 22016B   23218.09993721  .00002021  00000-0  14504-3 0  9998,2 51715  53.2164 258.5373 0001123  97.8466 262.2653 15.08840330 81650,6917.879,95.438,540.521,538.968,0.0
51715.0,STARLINK-3533,PAYLOAD,2023-08-06 19:53:09,15.08829223,0.0001315,53.2161,255.2654,65.1398,294.973,0.000155,2.179e-05,0.0,0 STARLINK-3533,1 51715U 22016B   23218.82858744  .00002179  00000-0  15500-3 0  9995,2 51715  53.2161 255.2654 0001315  65.1398 294.9730 15.08829223 81766,6917.913,95.438,540.688,538.869,0.0
51715.0,STARLINK-3533,PAYLOAD,2023-08-07 08:36:14,15.08841914,0.0001119,53.2158,252.8862,88.5524,271.5596,-2.3078e-05,-6.55e-06,0.0,0 STARLINK-3533,1 51715U 22016B   23219.35850230 -.00000655  00000-0 -23078-4 0  9995,2 51715  53.2158 252.8862 0001119  88.5524 271.5596 15.08841914 81849,6917.875,95.437,540.514,538.965,0.0
51715.0,STARLINK-3533,PAYLOAD,2023-08-08 11:37:47,15.08840832,0.0001159,53.2159,247.8315,87.1199,272.9926,5.9654e-05,6.62e-06,0.0,0 STARLINK-3533,1 51715U 22016B   23220.48458124  .00000662  00000-0  59654-4 0  9992,2 51715  53.2159 247.8315 0001159  87.1199 272.9926 15.08840832 82014,6917.878,95.438,540.545,538.941,0.0
51715.0,STARLINK-3533,PAYLOAD,2023-08-10 09:43:59,15.08839685,0.0001137,53.2157,239.207,84.9396,275.1726,3.2513e-05,2.3e-06,0.0,0 STARLINK-3533,1 51715U 22016B   23222.40554527  .00000230  00000-0  32513-4 0  9996,2 51715  53.2157 239.2070 0001137  84.9396 275.1726 15.08839685 82304,6917.881,95.438,540.533,538.96,0.0
51715.0,STARLINK-3533,PAYLOAD,2023-08-11 11:10:09,15.0884103,0.0001182,53.2162,234.4495,84.5159,275.5968,4.4301e-05,4.17e-06,0.0,0 STARLINK-3533,1 51715U 22016B   23223.46538481  .00000417  00000-0  44301-4 0  9999,2 51715  53.2162 234.4495 0001182  84.5159 275.5968 15.08841030 82467,6917.877,95.437,540.56,538.925,0.0
51715.0,STARLINK-3533,PAYLOAD,2023-08-12 17:22:29,15.08837851,0.0001177,53.2156,228.8,87.0306,273.082,3.4732e-05,2.65e-06,0.0,0 STARLINK-3533,1 51715U 22016B   23224.72394812  .00000265  00000-0  34732-4 0  9995,2 51715  53.2156 228.8000 0001177  87.0306 273.0820 15.08837851 82652,6917.887,95.438,540.566,538.938,0.0
51715.0,STARLINK-3533,PAYLOAD,2023-08-14 09:07:09,15.08820923,0.0001178,53.216,221.3663,88.7575,271.3552,-0.00012886,-2.337e-05,0.0,0 STARLINK-3533,1 51715U 22016B   23226.37997089 -.00002337  00000-0 -12886-3 0  9992,2 51715  53.2160 221.3663 0001178  88.7575 271.3552 15.08820923 82900,6917.939,95.439,540.619,538.989,0.0
51715.0,STARLINK-3533,PAYLOAD,2023-08-14 17:04:04,15.08827896,0.0001247,53.217,219.8802,78.3453,281.7679,-6.5602e-05,-1.331e-05,0.0,0 STARLINK-3533,1 51715U 22016B   23226.71116826 -.00001331  00000-0 -65602-4 0  9990,2 51715  53.2170 219.8802 0001247  78.3453 281.7679 15.08827896 82951,6917.917,95.438,540.645,538.92,0.0
51715.0,STARLINK-3533,PAYLOAD,2023-08-15 16:54:51,15.08838615,0.0001126,53.2163,215.42,85.6325,274.4795,4.2372e-05,3.87e-06,0.0,0 STARLINK-3533,1 51715U 22016B   23227.70476506  .00000387  00000-0  42372-4 0  9991,2 51715  53.2163 215.4200 0001126  85.6325 274.4795 15.08838615 83109,6917.885,95.438,540.529,538.971,0.0
51715.0,STARLINK-3533,PAYLOAD,2023-08-17 02:17:56,15.08855376,0.0001245,53.2163,209.1739,97.1789,262.9344,0.00024216,3.57e-05,0.0,0 STARLINK-3533,1 51715U 22016B   23229.09579184  .00003570  00000-0  24216-3 0  9994,2 51715  53.2163 209.1739 0001245  97.1789 262.9344 15.08855376 83318,6917.833,95.437,540.56,538.837,0.0
51715.0,STARLINK-3533,PAYLOAD,2023-08-17 10:14:51,15.08866911,0.0001256,53.2163,207.6869,97.1641,262.9494,0.00031419,4.72e-05,0.0,0 STARLINK-3533,1 51715U 22016B   23229.42698175  .00004720  00000-0  31419-3 0  9994,2 51715  53.2163 207.6869 0001256  97.1641 262.9494 15.08866911 83362,6917.798,95.436,540.532,538.794,0.0
51715.0,STARLINK-3533,PAYLOAD,2023-08-18 03:44:06,15.08845107,0.0001326,53.2157,204.4161,94.1974,265.917,-5.4085e-05,-1.149e-05,0.0,0 STARLINK-3533,1 51715U 22016B   23230.15563546 -.00001149  00000-0 -54085-4 0  9998,2 51715  53.2157 204.4161 0001326  94.1974 265.9170 15.08845107 83479,6917.865,95.437,540.647,538.812,0.0
51715.0,STARLINK-3533,PAYLOAD,2023-08-19 05:10:16,15.08847561,0.0001282,53.2155,199.6577,85.001,275.1128,0.00016652,2.364e-05,0.0,0 STARLINK-3533,1 51715U 22016B   23231.21547036  .00002364  00000-0  16652-3 0  9997,2 51715  53.2155 199.6577 0001282  85.0010 275.1128 15.08847561 83634,6917.857,95.437,540.609,538.835,0.0
51715.0,STARLINK-3533,PAYLOAD,2023-08-20 03:25:41,15.08836237,0.0001456,53.2158,195.4939,86.6922,273.4237,9.1968e-05,1.176e-05,0.0,0 STARLINK-3533,1 51715U 22016B   23232.14283832  .00001176  00000-0  91968-4 0  9995,2 51715  53.2158 195.4939 0001456  86.6922 273.4237 15.08836237 83770,6917.892,95.438,540.764,538.75,0.0
51715.0,STARLINK-3533,PAYLOAD,2023-08-21 06:27:14,15.0884945,0.0001565,53.2162,190.4404,89.8996,270.2176,0.00041725,6.36e-05,0.0,0 STARLINK-3533,1 51715U 22016B   23233.26891656  .00006360  00000-0  41725-3 0  9993,2 51715  53.2162 190.4404 0001565  89.8996 270.2176 15.08849450 83941,6917.852,95.437,540.799,538.634,0.0
51715.0,STARLINK-3533,PAYLOAD,2023-08-22 04:42:38,15.08841671,0.0001575,53.216,186.2782,86.518,273.5992,0.00016587,2.353e-05,0.0,0 STARLINK-3533,1 51715U 22016B   23234.19628105  .00002353  00000-0  16587-3 0  9999,2 51715  53.2160 186.2782 0001575  86.5180 273.5992 15.08841671 84086,6917.875,95.437,540.83,538.651,0.0
51715.0,STARLINK-3533,PAYLOAD,2023-08-23 06:08:48,15.08851312,0.0001555,53.216,181.5171,100.5184,259.5984,0.00027959,4.166e-05,0.0,0 STARLINK-3533,1 51715U 22016B   23235.25611613  .00004166  00000-0  27959-3 0  9992,2 51715  53.2160 181.5171 0001555 100.5184 259.5984 15.08851312 84241,6917.846,95.437,540.787,538.635,0.0
51715.0,STARLINK-3533,PAYLOAD,2023-08-24 20:18:04,15.08840338,0.0001556,53.2156,174.3822,107.0275,253.0887,-4.7298e-05,-1.041e-05,0.0,0 STARLINK-3533,1 51715U 22016B   23236.84588091 -.00001041  00000-0 -47298-4 0  9991,2 51715  53.2156 174.3822 0001556 107.0275 253.0887 15.08840338 84486,6917.879,95.438,540.821,538.668,0.0
51715.0,STARLINK-3533,PAYLOAD,2023-08-24 23:28:50,15.08842054,0.0001469,53.2157,173.7876,98.1045,262.0113,-7.7298e-07,-3e-06,0.0,0 STARLINK-3533,1 51715U 22016B   23236.97836112 -.00000300  00000-0 -77298-6 0  9997,2 51715  53.2157 173.7876 0001469  98.1045 262.0113 15.08842054 84509,6917.874,95.437,540.755,538.723,0.0
51715.0,STARLINK-3533,PAYLOAD,2023-08-25 05:50:22,15.08844267,0.0001587,53.2166,172.5976,88.7694,271.348,6.0252e-05,6.71e-06,0.0,0 STARLINK-3533,1 51715U 22016B   23237.24331963  .00000671  00000-0  60252-4 0  9991,2 51715  53.2166 172.5976 0001587  88.7694 271.3480 15.08844267 84545,6917.867,95.437,540.83,538.634,0.0
51715.0,STARLINK-3533,PAYLOAD,2023-08-26 00:55:00,15.08840821,0.0001427,53.2167,169.0294,97.6133,262.5021,6.8511e-05,8.03e-06,0.0,0 STARLINK-3533,1 51715U 22016B   23238.03820264  .00000803  00000-0  68511-4 0  9999,2 51715  53.2167 169.0294 0001427  97.6133 262.5021 15.08840821 84668,6917.878,95.438,540.73,538.756,0.0
51715.0,STARLINK-3533,PAYLOAD,2023-08-26 04:05:46,15.08843527,0.0001377,53.2167,168.4351,93.4913,266.6236,0.00013168,1.809e-05,0.0,0 STARLINK-3533,1 51715U 22016B   23238.17068130  .00001809  00000-0  13168-3 0  9994,2 51715  53.2167 168.4351 0001377  93.4913 266.6236 15.08843527 84680,6917.87,95.437,540.687,538.782,0.0
51715.0,STARLINK-3533,PAYLOAD,2023-08-27 03:56:33,15.08847752,0.0001461,53.2172,163.976,91.398,268.718,-0.00017407,-3.058e-05,0.0,0 STARLINK-3533,1 51715U 22016B   23239.16427976 -.00003058  00000-0 -17407-3 0  9991,2 51715  53.2172 163.9760 0001461  91.3980 268.7180 15.08847752 84837,6917.857,95.437,540.732,538.711,0.0
51715.0,STARLINK-3533,PAYLOAD,2023-08-28 00:36:35,15.0883731,0.0001413,53.2173,160.1107,85.7972,274.3182,0.00021173,3.083e-05,0.0,0 STARLINK-3533,1 51715U 22016B   23240.02540678  .00003083  00000-0  21173-3 0  9994,2 51715  53.2173 160.1107 0001413  85.7972 274.3182 15.08837310 84965,6917.889,95.438,540.731,538.776,0.0
